TDRS 3                  
1 19548U 88091B   22113.04094727 -.00000309  00000+0  00000+0 0  9996
2 19548  13.7555 351.7580 0037374 334.8460 210.2690  1.00277727110180
FLTSATCOM 8 (USA 46)    
1 20253U 89077A   22112.82986139 -.00000089  00000+0  00000+0 0  9993
2 20253  12.8770   0.6067 0006549  81.3895 139.4833  1.00271187245409
SKYNET 4C               
1 20776U 90079A   22112.82933366  .00000116  00000+0  00000+0 0  9991
2 20776  13.8229   0.4792 0002880  30.5627 151.7478  1.00276803115683
TDRS 5                  
1 21639U 91054B   22113.42340979  .00000073  00000+0  00000+0 0  9995
2 21639  14.2432   5.0858 0027110   0.8976 190.2165  1.00275251112513
TDRS 6                  
1 22314U 93003B   22113.12611571 -.00000305  00000+0  00000+0 0  9997
2 22314  14.1289   8.3205 0010435  95.2429 107.0111  1.00266983107207
UFO 2 (USA 95)          
1 22787U 93056A   22113.36716060  .00000115  00000+0  00000+0 0  9992
2 22787  11.4551  11.4460 0004508  16.1020 344.7152  1.00270445103359
USA 99 (MILSTAR-1 1)    
1 22988U 94009A   22113.30700185 -.00000204  00000+0  00000+0 0  9999
2 22988  15.2610  43.7004 0001674 334.1728 213.9559  1.00274125 17767
USA 107 (DSP 17)        
1 23435U 94084A   22113.23391306 -.00000177  00000+0  00000+0 0  9992
2 23435  14.5868   6.2057 0002131  79.9835 112.8335  1.00273217 17755
UFO 4 (USA 108)         
1 23467U 95003A   22113.60219751 -.00000034  00000+0  00000+0 0  9995
2 23467   9.8659  18.0695 0004664  42.6423 180.1011  1.00268939 99751
AMSC 1                  
1 23553U 95019A   22113.37918293 -.00000103  00000+0  00000+0 0  9996
2 23553  11.8970  26.5804 0007293   6.2529 207.6209  1.00271685 98975
TDRS 7                  
1 23613U 95035B   22112.96031567 -.00000212  00000+0  00000+0 0  9996
2 23613  13.9996 359.0074 0029985  46.4717 236.0890  1.00272729 98043
USA 113                 
1 23628U 95038A   22112.74637484 -.00000347  00000+0  00000+0 0  9990
2 23628  12.0310  25.4001 0001025 359.4575 198.3197  1.00268432 17763
USA 115 (MILSTAR-1 2)   
1 23712U 95060A   22113.27015455 -.00000029  00000+0  00000+0 0  9993
2 23712  13.5056  14.7022 0002387  21.0999 152.7102  1.00272557 17682
INMARSAT 3-F1           
1 23839U 96020A   22113.13313287 -.00000057  00000+0  00000+0 0  9990
2 23839   7.4282  58.4610 0007233   0.4473 201.9952  1.00001059 95094
INMARSAT 3-F2           
1 24307U 96053A   22113.58790197  .00000017  00000+0  00000+0 0  9990
2 24307   6.3955  67.3811 0010037 348.2013 249.6269  0.99980767 93762
AMC-1 (GE-1)            
1 24315U 96054A   22113.57372146  .00000054  00000+0  00000+0 0  9990
2 24315   5.4923  73.5966 0003646 322.7621 250.8695  1.00272427 31125
INMARSAT 3-F3           
1 24674U 96070A   22113.27865597 -.00000369  00000+0  00000+0 0  9990
2 24674   7.0179  62.1027 0006544 346.6299  30.4933  0.99997370 92753
GALAXY 25 (G-25)        
1 24812U 97026A   22113.55346000 -.00000016  00000+0  00000+0 0  9999
2 24812   3.5560  84.1709 0005230 337.6196  55.1230  1.00271407 91189
INTELSAT 5 (IS-5)       
1 24916U 97046A   22112.64296705  .00000007  00000+0  00000+0 0  9990
2 24916   7.1114  61.4361 0001977  37.3504 161.9267  1.00154451 90412
AMC-3 (GE-3)            
1 24936U 97050A   22113.46646906 -.00000271  00000+0  00000+0 0  9994
2 24936   4.4126  79.9707 0003225 322.8173 264.6206  1.00270186 37236
USA 134                 
1 25019U 97065A   22113.44751517 -.00000071  00000+0  00000+0 0  9994
2 25019  10.9924  31.8342 0006405 359.8911 228.6417  1.00271493 17753
ASTRA 1G                
1 25071U 97076A   22113.54404044  .00000104  00000+0  00000+0 0  9991
2 25071   6.1222  68.6939 0003765 322.5616  35.5581  1.00274050 89303
INMARSAT 3-F5           
1 25153U 98006B   22113.33382696 -.00000300  00000+0  00000+0 0  9990
2 25153   6.2799  66.1876 0005230 334.7247 236.6030  1.00268605 88694
UFO 8 (USA 138)         
1 25258U 98016A   22113.59936910 -.00000036  00000+0  00000+0 0  9995
2 25258   9.3695  30.1221 0003690  26.2959 182.5845  1.00274080 88658
ASTRA 2A                
1 25462U 98050A   22113.54587203  .00000136  00000+0  00000+0 0  9992
2 25462   3.2691  86.1119 0002570 319.7139  30.2478  1.00275030 31135
SKYNET 4E               
1 25639U 99009B   22112.96600446 -.00000044  00000+0  00000+0 0  9992
2 25639  11.2183  17.2209 0002387  52.4959 127.8108  1.00270788 36186
ABS-7                   
1 25894U 99046A   22113.46013659 -.00000289  00000+0  00000+0 0  9997
2 25894   2.6255  88.1921 0005919 337.8710 269.0078  0.99970748 81927
ABS-6                   
1 25924U 99053A   22113.58469367 -.00000133  00000+0  00000+0 0  9991
2 25924   0.0422  67.0657 0002825 355.5988 158.4481  1.00272233 82655
AMC-4 (GE-4)            
1 25954U 99060A   22113.56824653  .00000075  00000+0  00000+0 0  9997
2 25954   1.3824  92.3859 0003184 305.5393 243.3214  1.00271546 28358
UFO 10 (USA 146)        
1 25967U 99063A   22113.10511736 -.00000197  00000+0  00000+0 0  9995
2 25967   8.6456  33.6179 0004023  31.0070 161.4976  1.00272452 82130
GALAXY 11 (G-11)        
1 26038U 99071A   22113.52171259 -.00000175  00000+0  00000+0 0  9998
2 26038   2.8611  88.4776 0000507  14.5265 203.2567  1.00271653 81889
USA 148                 
1 26052U 00001A   22113.07389329  .00000030  00000+0  00000+0 0  9997
2 26052   9.4543  42.7363 0001536 350.0979  25.2640  1.00271808 17762
ASIASTAR                
1 26107U 00016A   22113.41768167 -.00000344  00000+0  00000+0 0  9992
2 26107   5.5536  72.4076 0004805 329.5640  64.8312  1.00269562 80726
USA 149 (DSP 20)        
1 26356U 00024A   22113.52722694  .00000085  00000+0  00000+0 0  9995
2 26356  12.0443  21.8698 0000631 234.6949 338.9825  1.00267820 17719
TDRS 8                  
1 26388U 00034A   22113.29215962 -.00000239  00000+0  00000+0 0  9992
2 26388  10.2825  42.9294 0023299 341.0455  21.4200  1.00263985 79980
INTELSAT 9 (IS-9)       
1 26451U 00043A   22113.31190498 -.00000298  00000+0  00000+0 0  9997
2 26451   7.0994  61.6065 0002948 336.5699 235.4338  1.00273200 28943
NSS-11 (AAP-1)          
1 26554U 00059A   22113.60660373  .00000011  00000+0  00000+0 0  9996
2 26554   0.0498  69.2334 0002398 312.6278 224.1205  1.00271588 26098
USA 153                 
1 26575U 00065A   22113.20827094 -.00000334  00000+0  00000+0 0  9996
2 26575   9.0096  46.0651 0001900   1.3047  13.2465  1.00269725 17739
AMC-6 (GE-6)            
1 26580U 00067A   22113.56330157  .00000091  00000+0  00000+0 0  9991
2 26580   0.0431  70.6866 0002752 322.7759 241.8907  1.00271631 78721
INTELSAT 1R (IS-1R)     
1 26608U 00072A   22113.58333310 -.00000150  00000+0  00000+0 0  9991
2 26608   4.3320  80.5904 0000985 347.3986 150.7418  1.00271733 26125
ANIK F1                 
1 26624U 00076A   22113.60031420 -.00000075  00000+0  00000+0 0  9999
2 26624   1.2982  93.1752 0009291 331.1361 254.2485  1.00271895 27945
ASTRA 2D                
1 26638U 00081A   22113.54499984  .00000118  00000+0  00000+0 0  9993
2 26638   7.1791  60.6686 0001989 319.8286  50.9225  1.00269870 37712
AMC-8 (GE-8)            
1 26639U 00081B   22113.56824679  .00000075  00000+0  00000+0 0  9991
2 26639   2.3096  89.1320 0002828 307.4855 244.5303  1.00271727 78130
USA 157 (MILSTAR-2 2)   
1 26715U 01009A   22113.43100344  .00000004  00000+0  00000+0 0  9991
2 26715   9.9642  27.4224 0002061  14.3773 200.4666  1.00270759 17753
EUTELSAT 133 WEST A     
1 26719U 01011A   22113.57150878  .00000065  00000+0  00000+0 0  9997
2 26719   3.5807  83.2573 0002311 311.7164 249.5148  1.00269670 77343
INTELSAT 10 (IS-10)     
1 26766U 01019A   22113.60817726  .00000023  00000+0  00000+0 0  9997
2 26766   5.4512  73.8161 0004458 324.5729 209.9707  1.00270231 30424
INTELSAT 901 (IS-901)   
1 26824U 01024A   22113.39125458 -.00000215  00000+0  00000+0 0  9992
2 26824   0.0448  73.8783 0001063 339.3819 271.5053  1.00271139  7770
ASTRA 2C                
1 26853U 01025A   22113.45403132 -.00000270  00000+0  00000+0 0  9991
2 26853   4.4374  79.7752 0002815 322.0478 260.5905  1.00274698 76374
USA 159 (DSP 21)        
1 26880U 01033A   22113.16785319 -.00000307  00000+0  00000+0 0  9999
2 26880  11.3779  26.1224 0000518 104.2928  92.1140  1.00276051 17761
INTELSAT 902 (IS-902)   
1 26900U 01039A   22113.45856667 -.00000294  00000+0  00000+0 0  9990
2 26900   2.2682  89.5593 0003174 309.7656 287.1507  1.00271037 75495
USA 164 (MILSTAR-2 3)   
1 27168U 02001A   22112.99910376  .00000090  00000+0  00000+0 0  9996
2 27168   9.4508  29.2398 0002129 342.7452 217.6410  1.00271867 16444
ECHOSTAR 7              
1 27378U 02006A   22113.60146900 -.00000103  00000+0  00000+0 0  9993
2 27378   0.1050  87.3195 0005927 320.9745 192.2045  0.99849858 35406
INTELSAT 904 (IS-904)   
1 27380U 02007A   22113.39090571 -.00000226  00000+0  00000+0 0  9991
2 27380   3.1021  86.4800 0003329 319.8506 276.2915  1.00270372 36568
TDRS 9                  
1 27389U 02011A   22113.31240938 -.00000296  00000+0  00000+0 0  9998
2 27389   8.9048  61.3112 0027496 302.6536 257.3844  1.00264583 75247
ASTRA 3A                
1 27400U 02015B   22113.37939291 -.00000213  00000+0  00000+0 0  9998
2 27400   7.2840  59.5285 0001456 330.5080 231.1076  1.00268959 73522
NSS-7                   
1 27414U 02019A   22113.24926345 -.00000168  00000+0  00000+0 0  9998
2 27414   5.7726  71.7476 0002653 324.6329 244.6149  1.00271889 73369
DIRECTV 5 (TEMPO 1)     
1 27426U 02023A   22113.59852802 -.00000069  00000+0  00000+0 0  9990
2 27426   0.9908  93.6973 0003393 304.6220 278.6483  1.00271743 72924
INTELSAT 905 (IS-905)   
1 27438U 02027A   22113.39186510 -.00000196  00000+0  00000+0 0  9992
2 27438   2.9233  87.2281 0002768 313.4193 287.3300  1.00270145 36169
GALAXY 3C (G-3C)        
1 27445U 02030A   22112.38314345 -.00000160  00000+0  00000+0 0  9992
2 27445   0.0341  49.7658 0001829 279.1993 284.3232  1.00269094 31291
